# Butser weather data run — 2026-07-19T09:57:06.251615+01:00

## Source status
- **models:** mixed
- **open_meteo_current:** ok
- **rasp:** mixed

## Observation checks
- **metars:** `{"status": "ok", "stations": {"EGLF": {"icaoId": "EGLF", "receiptTime": "2026-07-19T06:24:08.165Z", "obsTime": 1784442000, "reportTime": "2026-07-19T06:20:00.000Z", "temp": 14, "dewp": 8, "wdir": 20, "wspd": 8, "visib": "6+", "altim": 1024, "qcField": 2, "metarType": "METAR", "rawOb": "METAR EGLF 190620Z AUTO 02008KT 9999 NCD 14/08 Q1024", "lat": 51.28, "lon": -0.773, "elev": 65, "name": "Farnborough Arpt, EN, GB", "cover": "CLR", "clouds": [], "fltCat": "VFR"}, "EGHI": {"icaoId": "EGHI", "recei`
- **rain_radar:** `{"status": "ok", "frame_unix": 1784451000, "tile_url": "https://tilecache.rainviewer.com/v2/radar/40c80f9c611b/256/8/127/85/2/1_1.png", "rain_pixels_near_site_pct": 0.0, "interpretation": "no meaningful radar echo at site", "attribution": "RainViewer"}`
- **sunshine_since_sunrise:** `{"status": "estimated", "sunny_equivalent_hours": 1.2, "mean_shortwave_wm2": 136.8, "warning": "Derived from Open-Meteo radiation/nowcast fields; not an observed sunshine recorder"}`
- **ukv_reality_check:** `{"status": "unavailable", "reason": "matching UKV hour not found"}`

This is raw evidence for a later flying assessment. Missing sources are explicit and no unavailable values are invented.
